<?xml version="1.0" encoding="UTF-8"?>
<cdm xmlns:xsi="http://www.w3.org/2001/XMLSchema-instance"
xsi:noNamespaceSchemaLocation="http://sanaregistry.org/r/ndmxml/ndmxml-1.0-master.xsd"
id="CCSDS_CDM_VERS" version="1.0">
	<header>
		<COMMENT>JSPOC - CDM Test Message</COMMENT>
		<COMMENT>NOTES:</COMMENT>
		<COMMENT> -- TIME OF CLOSEST APPROACH IS THE VECTOR AND COVARIANCE TIME TAG </COMMENT>
		<COMMENT> -- DC SPAN IS THE TIME SPAN FOR THE LISTED NUMBER OF TRACKS       </COMMENT>
		<COMMENT> -- NUMBER OF TRACKS IS THE NUMBER OF 1 OR MORE OBSERVATION SENSOR </COMMENT>
		<COMMENT>    TRACKS ACQUIRED FROM A QUALITY SENSOR DURING THE DC TIME SPAN  </COMMENT>
		<COMMENT> -- TDR (EFG) STATE VECTORS ARE EARTH-FIXED ROTATING VECTORS       </COMMENT>
		<COMMENT>    REFERENCED TO THE TRUE EQUATOR OF DATE.                        </COMMENT>
		<COMMENT> -- RELATIVE VECTORS ARE IN ASSET-CENTERED INERTIAL UVW            </COMMENT>
		<COMMENT>    (RADIAL, IN-TRACK, CROSS-TRACK) COORDINATES                    </COMMENT>
		<COMMENT> -- COVARIANCE MATRICES ARE IN THEIR RESPECTIVE INERTIAL UVW       </COMMENT>
		<COMMENT>    (RADIAL, IN-TRACK, CROSS-TRACK) COORDINATES                    </COMMENT>
		<COMMENT> -- COVARIANCE MATRICES REPRESENT UNSCALED VALUES                  </COMMENT>
		<COMMENT> -- THE (7,X),(X,7) COMPONENTS OF THE COVARIANCE MATRICES ARE FOR  </COMMENT>
		<COMMENT>    ATMOSPHERIC DRAG EFFECTS                                       </COMMENT>
		<COMMENT> -- THE (8,X),(X,8) COMPONENTS OF THE COVARIANCE MATRICES ARE FOR  </COMMENT>
		<COMMENT>    SOLAR RADIATION PRESSURE EFFECTS                               </COMMENT>
		
		
		
		
		
		<CREATION_DATE>2012-12-26T01:59:28.000</CREATION_DATE>
		<ORIGINATOR>JSpOC</ORIGINATOR>
		<MESSAGE_FOR>SPOT 6</MESSAGE_FOR>
		<MESSAGE_ID>2012361015928Z</MESSAGE_ID>
	</header>
	<body>
		<relativeMetadataData>
			<COMMENT>RELATIVE DATA</COMMENT>
			
			<TCA>2012-12-26T05:00:40.724</TCA>
			<MISS_DISTANCE units="m">617</MISS_DISTANCE>
			<RELATIVE_SPEED units="m/s">14976</RELATIVE_SPEED>
			<relativeStateVector>
				<RELATIVE_POSITION_R units="m">-82.5</RELATIVE_POSITION_R>
				<RELATIVE_POSITION_T units="m">-50.9</RELATIVE_POSITION_T>
				<RELATIVE_POSITION_N units="m">609.4</RELATIVE_POSITION_N>
				<RELATIVE_VELOCITY_R units="m/s">2.5</RELATIVE_VELOCITY_R>
				<RELATIVE_VELOCITY_T units="m/s">-14919.5</RELATIVE_VELOCITY_T>
				<RELATIVE_VELOCITY_N units="m/s">-1303.9</RELATIVE_VELOCITY_N>
			</relativeStateVector>
			
			
		</relativeMetadataData>
		<segment>
			<metadata>
				<COMMENT>ASSET SATELLITE</COMMENT>
				<OBJECT>OBJECT1</OBJECT>
				<OBJECT_DESIGNATOR>38755</OBJECT_DESIGNATOR>
				<CATALOG_NAME>US SATCAT</CATALOG_NAME>
				<OBJECT_NAME>SPOT 6</OBJECT_NAME>
				<INTERNATIONAL_DESIGNATOR>2012-047A</INTERNATIONAL_DESIGNATOR>
				<EPHEMERIS_NAME>NONE</EPHEMERIS_NAME>
				<COVARIANCE_METHOD>CALCULATED</COVARIANCE_METHOD>
				<MANEUVERABLE>N/A</MANEUVERABLE>
				<ORBIT_CENTER>EARTH</ORBIT_CENTER>
				<REF_FRAME>ITRF</REF_FRAME>
				<GRAVITY_MODEL>EGM-96: 36D 36O</GRAVITY_MODEL>
				<ATMOSPHERIC_MODEL>JACCHIA 70 DCA</ATMOSPHERIC_MODEL>
				<N_BODY_PERTUBATIONS>*ERROR*</N_BODY_PERTUBATIONS>
				<SOLAR_RAD_PRESSURE>NO</SOLAR_RAD_PRESSURE>
				<EARTH_TIDES>NO</EARTH_TIDES>
				<INTRACK_THRUST>NO</INTRACK_THRUST>
			</metadata>
			<data>
				<COMMENT>ASSET SATELLITE Data</COMMENT>
				<odParameters>
					<COMMENT>OD Parameters</COMMENT>
					
					
					<RECOMMENDED_OD_SPAN units="d">0.00</RECOMMENDED_OD_SPAN>
					<ACTUAL_OD_SPAN units="d">0.00</ACTUAL_OD_SPAN>
					<OBS_AVAILABLE>0</OBS_AVAILABLE>
					<OBS_USED>0</OBS_USED>
					
					
					<RESIDUALS_ACCEPTED units="%">0.0</RESIDUALS_ACCEPTED>
					<WEIGHTED_RMS>1.096</WEIGHTED_RMS>
				</odParameters>
				<additionalParameters>
					
					
					
					
					
					<CD_AREA_OVER_MASS units="m**2/kg">0.000000</CD_AREA_OVER_MASS>
					<CR_AREA_OVER_MASS units="m**2/kg">0.000000</CR_AREA_OVER_MASS>
					<SEDR units="W/kg">0.00000E+00</SEDR>
				</additionalParameters>
				<stateVector>
					<COMMENT>State Vector</COMMENT>
					<X units="km">-2024.514518797</X>
					<Y units="km">-5220.339365742</Y>
					<Z units="km">4321.344174491</Z>
					<X_DOT units="km/s">-0.005534901</X_DOT>
					<Y_DOT units="km/s">4.850712989</Y_DOT>
					<Z_DOT units="km/s">5.840897439</Z_DOT>
				</stateVector>
				<covarianceMatrix>
					<COMMENT>Covariance Matrix</COMMENT>
					<CR_R units="m**2">0.000E+00</CR_R>
					<CT_R units="m**2">0.000E+00</CT_R>
					<CT_T units="m**2">0.000E+00</CT_T>
					<CN_R units="m**2">0.000E+00</CN_R>
					<CN_T units="m**2">0.000E+00</CN_T>
					<CN_N units="m**2">0.000E+00</CN_N>
					<CRDOT_R units="m**2/s">0.000E+00</CRDOT_R>
					<CRDOT_T units="m**2/s">0.000E+00</CRDOT_T>
					<CRDOT_N units="m**2/s">0.000E+00</CRDOT_N>
					<CRDOT_RDOT units="m**2/s**2">0.000E+00</CRDOT_RDOT>
					<CTDOT_R units="m**2/s">0.000E+00</CTDOT_R>
					<CTDOT_T units="m**2/s">0.000E+00</CTDOT_T>
					<CTDOT_N units="m**2/s">0.000E+00</CTDOT_N>
					<CTDOT_RDOT units="m**2/s**2">0.000E+00</CTDOT_RDOT>
					<CTDOT_TDOT units="m**2/s**2">0.000E+00</CTDOT_TDOT>
					<CNDOT_R units="m**2/s">0.000E+00</CNDOT_R>
					<CNDOT_T units="m**2/s">0.000E+00</CNDOT_T>
					<CNDOT_N units="m**2/s">0.000E+00</CNDOT_N>
					<CNDOT_RDOT units="m**2/s**2">0.000E+00</CNDOT_RDOT>
					<CNDOT_TDOT units="m**2/s**2">0.000E+00</CNDOT_TDOT>
					<CNDOT_NDOT units="m**2/s**2">0.000E+00</CNDOT_NDOT>
				</covarianceMatrix>
			</data>
		</segment>
		<segment>
			<metadata>
				<COMMENT>CONJUNCTING SATELLITE</COMMENT>
				<OBJECT>OBJECT2</OBJECT>
				<OBJECT_DESIGNATOR>34115</OBJECT_DESIGNATOR>
				<CATALOG_NAME>US SATCAT</CATALOG_NAME>
				<OBJECT_NAME>COSMOS 2251 DEB</OBJECT_NAME>
				<INTERNATIONAL_DESIGNATOR>1993-036KL</INTERNATIONAL_DESIGNATOR>
				<EPHEMERIS_NAME>NONE</EPHEMERIS_NAME>
				<COVARIANCE_METHOD>CALCULATED</COVARIANCE_METHOD>
				<MANEUVERABLE>N/A</MANEUVERABLE>
				<ORBIT_CENTER>EARTH</ORBIT_CENTER>
				<REF_FRAME>ITRF</REF_FRAME>
				<GRAVITY_MODEL>EGM-96: 36D 36O</GRAVITY_MODEL>
				<ATMOSPHERIC_MODEL>JACCHIA 70 DCA</ATMOSPHERIC_MODEL>
				<N_BODY_PERTUBATIONS>MOON,SUN</N_BODY_PERTUBATIONS>
				<SOLAR_RAD_PRESSURE>YES</SOLAR_RAD_PRESSURE>
				<EARTH_TIDES>NO</EARTH_TIDES>
				<INTRACK_THRUST>NO</INTRACK_THRUST>
			</metadata>
			<data>
				<COMMENT>CONJUNCTING SATELLITE Data</COMMENT>
				<odParameters>
					<COMMENT>OD Parameters</COMMENT>
					
					
					<RECOMMENDED_OD_SPAN units="d">7.73</RECOMMENDED_OD_SPAN>
					<ACTUAL_OD_SPAN units="d">7.73</ACTUAL_OD_SPAN>
					<OBS_AVAILABLE>277</OBS_AVAILABLE>
					<OBS_USED>277</OBS_USED>
					
					
					<RESIDUALS_ACCEPTED units="%">99.5</RESIDUALS_ACCEPTED>
					<WEIGHTED_RMS>1.391</WEIGHTED_RMS>
				</odParameters>
				<additionalParameters>
					
					
					
					
					
					<CD_AREA_OVER_MASS units="m**2/kg">0.134916</CD_AREA_OVER_MASS>
					<CR_AREA_OVER_MASS units="m**2/kg">0.046847</CR_AREA_OVER_MASS>
					<SEDR units="W/kg">3.41358E-04</SEDR>
				</additionalParameters>
				<stateVector>
					<COMMENT>State Vector</COMMENT>
					<X units="km">-2025.076536869</X>
					<Y units="km">-5220.156028492</Y>
					<Z units="km">4321.167331981</Z>
					<X_DOT units="km/s">0.501652298</X_DOT>
					<Y_DOT units="km/s">-4.811883172</Y_DOT>
					<Z_DOT units="km/s">-5.590157384</Z_DOT>
				</stateVector>
				<covarianceMatrix>
					<COMMENT>Covariance Matrix</COMMENT>
					<CR_R units="m**2">1.016E+02</CR_R>
					<CT_R units="m**2">-1.282E+02</CT_R>
					<CT_T units="m**2">6.504E+02</CT_T>
					<CN_R units="m**2">-4.104E+01</CN_R>
					<CN_T units="m**2">7.335E+01</CN_T>
					<CN_N units="m**2">3.216E+02</CN_N>
					<CRDOT_R units="m**2/s">0.000E+00</CRDOT_R>
					<CRDOT_T units="m**2/s">0.000E+00</CRDOT_T>
					<CRDOT_N units="m**2/s">0.000E+00</CRDOT_N>
					<CRDOT_RDOT units="m**2/s**2">0.000E+00</CRDOT_RDOT>
					<CTDOT_R units="m**2/s">0.000E+00</CTDOT_R>
					<CTDOT_T units="m**2/s">0.000E+00</CTDOT_T>
					<CTDOT_N units="m**2/s">0.000E+00</CTDOT_N>
					<CTDOT_RDOT units="m**2/s**2">0.000E+00</CTDOT_RDOT>
					<CTDOT_TDOT units="m**2/s**2">0.000E+00</CTDOT_TDOT>
					<CNDOT_R units="m**2/s">0.000E+00</CNDOT_R>
					<CNDOT_T units="m**2/s">0.000E+00</CNDOT_T>
					<CNDOT_N units="m**2/s">0.000E+00</CNDOT_N>
					<CNDOT_RDOT units="m**2/s**2">0.000E+00</CNDOT_RDOT>
					<CNDOT_TDOT units="m**2/s**2">0.000E+00</CNDOT_TDOT>
					<CNDOT_NDOT units="m**2/s**2">0.000E+00</CNDOT_NDOT>
				</covarianceMatrix>
			</data>
		</segment>
	</body>
</cdm>
